$$SOE
2460721.500000000, A.D. 2025-Feb-15 00:00:00.0000, -3.319529138617365E+08, -3.709772009512533E+08, 2.263618888939801E+08,
2460728.500000000, A.D. 2025-Feb-22 00:00:00.0000, -3.269511200767054E+08, -3.760942403652499E+08, 2.290915070781680E+08,
2460735.500000000, A.D. 2025-Mar-01 00:00:00.0000, -3.218531214007396E+08, -3.811006893809962E+08, 2.317537177712362E+08,
2460742.500000000, A.D. 2025-Mar-08 00:00:00.0000, -3.166612166213235E+08, -3.859960239197271E+08, 2.343483145835929E+08,
2460749.500000000, A.D. 2025-Mar-15 00:00:00.0000, -3.113776667360849E+08, -3.907797283615006E+08, 2.368750954701362E+08,
2460756.500000000, A.D. 2025-Mar-22 00:00:00.0000, -3.060046988461391E+08, -3.954512940619779E+08, 2.393338624330092E+08,
2460763.500000000, A.D. 2025-Mar-29 00:00:00.0000, -3.005445086385269E+08, -4.000102201814315E+08, 2.417244209469349E+08,
2460770.500000000, A.D. 2025-Apr-05 00:00:00.0000, -2.949992611352082E+08, -4.044560136838427E+08, 2.440465793319984E+08,
2460777.500000000, A.D. 2025-Apr-12 00:00:00.0000, -2.893710916370074E+08, -4.087881883978169E+08, 2.463001482567634E+08,
2460784.500000000, A.D. 2025-Apr-19 00:00:00.0000, -2.836621070517760E+08, -4.130062640165031E+08, 2.484849403143445E+08,
2460791.500000000, A.D. 2025-Apr-26 00:00:00.0000, -2.778743873369249E+08, -4.171097652357762E+08, 2.506007696274342E+08,
2460798.500000000, A.D. 2025-May-03 00:00:00.0000, -2.720099869442912E+08, -4.210982210081711E+08, 2.526474514711556E+08,
2460805.500000000, A.D. 2025-May-10 00:00:00.0000, -2.660709362402974E+08, -4.249711639010367E+08, 2.546248019098837E+08,
2460812.500000000, A.D. 2025-May-17 00:00:00.0000, -2.600592428662377E+08, -4.287281295975078E+08, 2.565326374397851E+08,
2460819.500000000, A.D. 2025-May-24 00:00:00.0000, -2.539768928664768E+08, -4.323686565926413E+08, 2.583707746155600E+08,
2460826.500000000, A.D. 2025-May-31 00:00:00.0000, -2.478258511686997E+08, -4.358922857717468E+08, 2.601390296476678E+08,
2460833.500000000, A.D. 2025-Jun-07 00:00:00.0000, -2.416080618191974E+08, -4.392985586640325E+08, 2.618372181044749E+08,
2460840.500000000, A.D. 2025-Jun-14 00:00:00.0000, -2.353254503395877E+08, -4.425870150362774E+08, 2.634651548807105E+08,
2460847.500000000, A.D. 2025-Jun-21 00:00:00.0000, -2.289799269898407E+08, -4.457571930961711E+08, 2.650226540524631E+08,
2460854.500000000, A.D. 2025-Jun-28 00:00:00.0000, -2.225733878113431E+08, -4.488086305392846E+08, 2.665095284757023E+08,
2460861.500000000, A.D. 2025-Jul-05 00:00:00.0000, -2.161077149688679E+08, -4.517408642815331E+08, 2.679255894432555E+08,
2460868.500000000, A.D. 2025-Jul-12 00:00:00.0000, -2.095847775843893E+08, -4.545534296806398E+08, 2.692706464428905E+08,
2460875.500000000, A.D. 2025-Jul-19 00:00:00.0000, -2.030064328748863E+08, -4.572458598200284E+08, 2.705445069512906E+08,
2460882.500000000, A.D. 2025-Jul-26 00:00:00.0000, -1.963745273858154E+08, -4.598176849103462E+08, 2.717469762393544E+08,
2460889.500000000, A.D. 2025-Aug-02 00:00:00.0000, -1.896908982564813E+08, -4.622684317857875E+08, 2.728778571841125E+08,
2460896.500000000, A.D. 2025-Aug-09 00:00:00.0000, -1.829573744955707E+08, -4.645976235087308E+08, 2.739369500836277E+08,
2460903.500000000, A.D. 2025-Aug-16 00:00:00.0000, -1.761757781916661E+08, -4.668047791447976E+08, 2.749240524624708E+08,
2460910.500000000, A.D. 2025-Aug-23 00:00:00.0000, -1.693479253679212E+08, -4.688894136907716E+08, 2.758389588421620E+08,
2460917.500000000, A.D. 2025-Aug-30 00:00:00.0000, -1.624756261538322E+08, -4.708510374402989E+08, 2.766814605046471E+08,
2460924.500000000, A.D. 2025-Sep-06 00:00:00.0000, -1.555606856940682E+08, -4.726891537860361E+08, 2.774513454603739E+08,
2460931.500000000, A.D. 2025-Sep-13 00:00:00.0000, -1.486049074666866E+08, -4.744032579401472E+08, 2.781483985708984E+08,
2460938.500000000, A.D. 2025-Sep-20 00:00:00.0000, -1.416100957389297E+08, -4.759928382170985E+08, 2.787724013914192E+08,
2460945.500000000, A.D. 2025-Sep-27 00:00:00.0000, -1.345780561038868E+08, -4.774573767668951E+08, 2.793231318908617E+08,
2460952.500000000, A.D. 2025-Oct-04 00:00:00.0000, -1.275105961167814E+08, -4.787963492189738E+08, 2.798003642787378E+08,
2460959.500000000, A.D. 2025-Oct-11 00:00:00.0000, -1.204095264065154E+08, -4.800092241790846E+08, 2.802038688958718E+08,
2460966.500000000, A.D. 2025-Oct-18 00:00:00.0000, -1.132766619806759E+08, -4.810954628529513E+08, 2.805334121203507E+08,
2460973.500000000, A.D. 2025-Oct-25 00:00:00.0000, -1.061138235863016E+08, -4.820545187851841E+08, 2.807887562766299E+08,
2460980.500000000, A.D. 2025-Nov-01 00:00:00.0000, -9.892283908883648E+07, -4.828858376975119E+08, 2.809696595453748E+08,
2460987.500000000, A.D. 2025-Nov-08 00:00:00.0000, -9.170554483669692E+07, -4.835888574573889E+08, 2.810758758683578E+08,
2460994.500000000, A.D. 2025-Nov-15 00:00:00.0000, -8.446378686574022E+07, -4.841630082352259E+08, 2.811071548302101E+08,
2461001.500000000, A.D. 2025-Nov-22 00:00:00.0000, -7.719942154328829E+07, -4.846077126299044E+08, 2.810632414982780E+08,
2461008.500000000, A.D. 2025-Nov-29 00:00:00.0000, -6.991431580748665E+07, -4.849223846273223E+08, 2.809438763275411E+08,
2461015.500000000, A.D. 2025-Dec-06 00:00:00.0000, -6.261034928209428E+07, -4.851064275275906E+08, 2.807487953282245E+08,
2461022.500000000, A.D. 2025-Dec-13 00:00:00.0000, -5.528941783547133E+07, -4.851592342108830E+08, 2.804777301806031E+08,
2461029.500000000, A.D. 2025-Dec-20 00:00:00.0000, -4.795343509294683E+07, -4.850801887188596E+08, 2.801304080603470E+08,
2461036.500000000, A.D. 2025-Dec-27 00:00:00.0000, -4.060433297908292E+07, -4.848686665604641E+08, 2.797065514850074E+08,
2461043.500000000, A.D. 2026-Jan-03 00:00:00.0000, -3.324406275180843E+07, -4.845240343574855E+08, 2.792058782652857E+08,
2461050.500000000, A.D. 2026-Jan-10 00:00:00.0000, -2.587459642122135E+07, -4.840456495085887E+08, 2.786281014956865E+08,
2461057.500000000, A.D. 2026-Jan-17 00:00:00.0000, -1.849792832298791E+07, -4.834328599633399E+08, 2.779729295562022E+08,
2461064.500000000, A.D. 2026-Jan-24 00:00:00.0000, -1.111607677100612E+07, -4.826850040837208E+08, 2.772400661205840E+08,
2461071.500000000, A.D. 2026-Jan-31 00:00:00.0000, -3.731085768760149E+06, -4.818014106008931E+08, 2.764292101696107E+08,
2461078.500000000, A.D. 2026-Feb-07 00:00:00.0000, 3.654973278926782E+06, -4.807813987250589E+08, 2.755400560003947E+08,
2461085.500000000, A.D. 2026-Feb-14 00:00:00.0000, 1.104000010323159E+07, -4.796242784243734E+08, 2.745722932086911E+08,
2461092.500000000, A.D. 2026-Feb-21 00:00:00.0000, 1.842186474144655E+07, -4.783293502967208E+08, 2.735256066572245E+08,
2461099.500000000, A.D. 2026-Feb-28 00:00:00.0000, 2.579840625085982E+07, -4.768959038819012E+08, 2.723996766250238E+08,
2461106.500000000, A.D. 2026-Mar-07 00:00:00.0000, 3.316742890364372E+07, -4.753232163653852E+08, 2.711941791680655E+08,
2461113.500000000, A.D. 2026-Mar-14 00:00:00.0000, 4.052669863461372E+07, -4.736105540079786E+08, 2.699087862469633E+08,
2461120.500000000, A.D. 2026-Mar-21 00:00:00.0000, 4.787394152077844E+07, -4.717571734057521E+08, 2.685431656967331E+08,
2461127.500000000, A.D. 2026-Mar-28 00:00:00.0000, 5.520684227874558E+07, -4.697623215542375E+08, 2.670969813090104E+08,
2461134.500000000, A.D. 2026-Apr-04 00:00:00.0000, 6.252304217137953E+07, -4.676252356853042E+08, 2.655698930051315E+08,
2461141.500000000, A.D. 2026-Apr-11 00:00:00.0000, 6.982013659258717E+07, -4.653451432396640E+08, 2.639615570475775E+08,
2461148.500000000, A.D. 2026-Apr-18 00:00:00.0000, 7.709567248437914E+07, -4.629212619850062E+08, 2.622716262768248E+08,
2461155.500000000, A.D. 2026-Apr-25 00:00:00.0000, 8.434714562684987E+07, -4.603528002686926E+08, 2.604997503729899E+08,
2461162.500000000, A.D. 2026-May-02 00:00:00.0000, 9.157199782652655E+07, -4.576389574386653E+08, 2.586455761396990E+08,
2461169.500000000, A.D. 2026-May-09 00:00:00.0000, 9.876761412227751E+07, -4.547789245032950E+08, 2.567087477964000E+08,
2461176.500000000, A.D. 2026-May-16 00:00:00.0000, 1.059313203809560E+08, -4.517718848969000E+08, 2.546889072592495E+08,
2461183.500000000, A.D. 2026-May-23 00:00:00.0000, 1.130603813282311E+08, -4.486170143342340E+08, 2.525856944932133E+08,
2461190.500000000, A.D. 2026-May-30 00:00:00.0000, 1.201519969290469E+08, -4.453134794404681E+08, 2.503987481559555E+08,
2461197.500000000, A.D. 2026-Jun-06 00:00:00.0000, 1.272032967930184E+08, -4.418604384365409E+08, 2.481277062986509E+08,
2461204.500000000, A.D. 2026-Jun-13 00:00:00.0000, 1.342113362635099E+08, -4.382570436879578E+08, 2.457722068078374E+08,
2461211.500000000, A.D. 2026-Jun-20 00:00:00.0000, 1.411730936817391E+08, -4.345024431991236E+08, 2.433318878784721E+08,
2461218.500000000, A.D. 2026-Jun-27 00:00:00.0000, 1.480854671191549E+08, -4.305957814021210E+08, 2.408063886516439E+08,
2461225.500000000, A.D. 2026-Jul-04 00:00:00.0000, 1.549452705691208E+08, -4.265362000245815E+08, 2.381953499593098E+08,
2461232.500000000, A.D. 2026-Jul-11 00:00:00.0000, 1.617492298426488E+08, -4.223228391791978E+08, 2.354984151481155E+08,
2461239.500000000, A.D. 2026-Jul-18 00:00:00.0000, 1.684939782514044E+08, -4.179548386607919E+08, 2.327152309825900E+08,
2461246.500000000, A.D. 2026-Jul-25 00:00:00.0000, 1.751760520926699E+08, -4.134313394609770E+08, 2.298454486330518E+08,
2461253.500000000, A.D. 2026-Aug-01 00:00:00.0000, 1.817918859744467E+08, -4.087514855625424E+08, 2.268887247481010E+08,
2461260.500000000, A.D. 2026-Aug-08 00:00:00.0000, 1.883378081854596E+08, -4.039144260649620E+08, 2.238447225984256E+08,
2461267.500000000, A.D. 2026-Aug-15 00:00:00.0000, 1.948100365145517E+08, -3.989193172079970E+08, 2.207131133013491E+08,
2461274.500000000, A.D. 2026-Aug-22 00:00:00.0000, 2.012046737470736E+08, -3.937653230914429E+08, 2.174935773074890E+08,
2461281.500000000, A.D. 2026-Aug-29 00:00:00.0000, 2.075177005370001E+08, -3.884516164846646E+08, 2.141858062593778E+08,
2461288.500000000, A.D. 2026-Sep-05 00:00:00.0000, 2.137449677764725E+08, -3.829773826161709E+08, 2.107895048043703E+08,
$$EOE